{
  "type": "FeatureCollection",
  "features": [
    {
      "type": "Feature",
      "properties": {
        "id": "laco",
        "title": "LACO",
        "category": "laboratorio",
        "date": "",
        "description": "",
        "chapter": "dia-30-laco"
      },
      "geometry": {
        "type": "Point",
        "coordinates": [
          -45.118891,
          -23.499909
        ]
      }
    },
    {
      "type": "Feature",
      "properties": {
        "id": "rio-acarau",
        "title": "Rio Acaraú (Foz)",
        "category": "rio",
        "date": "2026-08-01",
        "description": "Percurso de observação de bacia hidrográfica no bairro Acaraú.",
        "chapter": "dia-01-bacias"
      },
      "geometry": {
        "type": "Point",
        "coordinates": [
          -45.054931,
          -23.459131
        ]
      }
    },
    {
      "type": "Feature",
      "properties": {
        "id": "rio-tavares",
        "title": "Rio Tavares (Foz)",
        "category": "rio",
        "date": "2026-08-01",
        "description": "Percurso de observação de bacia hidrográfica no Itaguá.",
        "chapter": "dia-01-bacias"
      },
      "geometry": {
        "type": "Point",
        "coordinates": [
          -45.066855,
          -23.446393
        ]
      }
    },
    {
      "type": "Feature",
      "properties": {
        "id": "rio-grande",
        "title": "Rio Grande (Foz)",
        "category": "rio",
        "date": "2026-08-01",
        "description": "Percurso de observação de bacia hidrográfica a partir da Ilha dos Pescadores.",
        "chapter": "dia-01-bacias"
      },
      "geometry": {
        "type": "Point",
        "coordinates": [
          -45.069451,
          -23.432045
        ]
      }
    },
    {
      "type": "Feature",
      "properties": {
        "id": "dia-01-barcas",
        "title": "Casa Saúde Cultura Viva",
        "category": "oficina",
        "date": "2026-08-01",
        "description": "Local onde foi realizada a oficina BARCAS Regenerativas.",
        "chapter": "dia-01-barcas"
      },
      "geometry": {
        "type": "Point",
        "coordinates": [
          -45.074681,
          -23.431545
        ]
      }
    }
  ]
}